{
  "type": "FeatureCollection",
  "features": [
    {
      "type": "Feature",
      "properties": {
        "norad_id": 66554,
        "name": "GLOBAL-33",
        "group": "last-30-days",
        "lat": -41.739633004010415,
        "lon": -21.007258216932463,
        "alt_km": 476.29444875358786,
        "timestamp": "2025-12-09T07:41:31.972777+00:00",
        "meta_object_name": "GLOBAL-33",
        "meta_object_id": "2025-267A",
        "meta_epoch": "2025-12-08T13:19:37.894080",
        "meta_mean_motion": 15.31498164,
        "meta_eccentricity": 0.00047931,
        "meta_inclination": 42.0201,
        "meta_ra_of_asc_node": 81.1482,
        "meta_arg_of_pericenter": 22.7031,
        "meta_mean_anomaly": 337.4018,
        "meta_ephemeris_type": 0,
        "meta_classification_type": "U",
        "meta_norad_cat_id": 66554,
        "meta_element_set_no": 999,
        "meta_rev_at_epoch": 276,
        "meta_bstar": 0.00059832068,
        "meta_mean_motion_dot": 0.00018392,
        "meta_mean_motion_ddot": 0,
        "tle_line1": "1 66554U 25267A   25342.55529970  .00018392  00000+0  59832-3 0  9998",
        "tle_line2": "2 66554  42.0201  81.1482 0004793  22.7031 337.4018 15.31498164  2762"
      },
      "geometry": {
        "type": "Point",
        "coordinates": [
          -21.007258216932463,
          -41.739633004010415
        ]
      }
    },
    {
      "type": "Feature",
      "properties": {
        "norad_id": 66555,
        "name": "ELECTRON KICK STAGE R/B",
        "group": "last-30-days",
        "lat": -27.764715424564564,
        "lon": 40.824815487302246,
        "alt_km": 469.0638193046898,
        "timestamp": "2025-12-09T07:41:31.972789+00:00",
        "meta_object_name": "ELECTRON KICK STAGE R/B",
        "meta_object_id": "2025-267B",
        "meta_epoch": "2025-12-08T13:06:52.531776",
        "meta_mean_motion": 15.32503128,
        "meta_eccentricity": 0.00068692,
        "meta_inclination": 42.0196,
        "meta_ra_of_asc_node": 81.083,
        "meta_arg_of_pericenter": 20.9024,
        "meta_mean_anomaly": 339.2093,
        "meta_ephemeris_type": 0,
        "meta_classification_type": "U",
        "meta_norad_cat_id": 66555,
        "meta_element_set_no": 999,
        "meta_rev_at_epoch": 276,
        "meta_bstar": 0.00096183495,
        "meta_mean_motion_dot": 0.00030739,
        "meta_mean_motion_ddot": 0,
        "tle_line1": "1 66555U 25267B   25342.54644134  .00030739  00000+0  96183-3 0  9997",
        "tle_line2": "2 66555  42.0196  81.0830 0006869  20.9024 339.2093 15.32503128  2761"
      },
      "geometry": {
        "type": "Point",
        "coordinates": [
          40.824815487302246,
          -27.764715424564564
        ]
      }
    },
    {
      "type": "Feature",
      "properties": {
        "norad_id": 66557,
        "name": "STARLINK-35699",
        "group": "last-30-days",
        "lat": 39.6503373251276,
        "lon": -156.01277941779432,
        "alt_km": 410.18787262605383,
        "timestamp": "2025-12-09T07:41:31.972800+00:00",
        "meta_object_name": "STARLINK-35699",
        "meta_object_id": "2025-268A",
        "meta_epoch": "2025-12-08T22:00:03.000096",
        "meta_mean_motion": 15.51678692,
        "meta_eccentricity": 6.773e-05,
        "meta_inclination": 43.0005,
        "meta_ra_of_asc_node": 143.5595,
        "meta_arg_of_pericenter": 276.1547,
        "meta_mean_anomaly": 55.9108,
        "meta_ephemeris_type": 0,
        "meta_classification_type": "U",
        "meta_norad_cat_id": 66557,
        "meta_element_set_no": 999,
        "meta_rev_at_epoch": 405,
        "meta_bstar": -0.029665424,
        "meta_mean_motion_dot": -0.01625615,
        "meta_mean_motion_ddot": 0,
        "tle_line1": "1 66557U 25268A   25342.91670139 -.01625615  00000+0 -29665-1 0  9990",
        "tle_line2": "2 66557  43.0005 143.5595 0000677 276.1547  55.9108 15.51678692  4054"
      },
      "geometry": {
        "type": "Point",
        "coordinates": [
          -156.01277941779432,
          39.6503373251276
        ]
      }
    },
    {
      "type": "Feature",
      "properties": {
        "norad_id": 66558,
        "name": "STARLINK-35695",
        "group": "last-30-days",
        "lat": 40.22345782077834,
        "lon": -153.6310474765455,
        "alt_km": 410.2596126984927,
        "timestamp": "2025-12-09T07:41:31.972810+00:00",
        "meta_object_name": "STARLINK-35695",
        "meta_object_id": "2025-268B",
        "meta_epoch": "2025-12-08T22:00:03.000096",
        "meta_mean_motion": 15.51685797,
        "meta_eccentricity": 9.511e-05,
        "meta_inclination": 43.0002,
        "meta_ra_of_asc_node": 143.5547,
        "meta_arg_of_pericenter": 270.9586,
        "meta_mean_anomaly": 63.0092,
        "meta_ephemeris_type": 0,
        "meta_classification_type": "U",
        "meta_norad_cat_id": 66558,
        "meta_element_set_no": 999,
        "meta_rev_at_epoch": 405,
        "meta_bstar": -0.029593239,
        "meta_mean_motion_dot": -0.01622548,
        "meta_mean_motion_ddot": 0,
        "tle_line1": "1 66558U 25268B   25342.91670139 -.01622548  00000+0 -29593-1 0  9993",
        "tle_line2": "2 66558  43.0002 143.5547 0000951 270.9586  63.0092 15.51685797  4055"
      },
      "geometry": {
        "type": "Point",
        "coordinates": [
          -153.6310474765455,
          40.22345782077834
        ]
      }
    },
    {
      "type": "Feature",
      "properties": {
        "norad_id": 66559,
        "name": "STARLINK-35419",
        "group": "last-30-days",
        "lat": 40.75616060600965,
        "lon": -151.1650833876261,
        "alt_km": 410.4613269938318,
        "timestamp": "2025-12-09T07:41:31.972821+00:00",
        "meta_object_name": "STARLINK-35419",
        "meta_object_id": "2025-268C",
        "meta_epoch": "2025-12-08T22:00:03.000096",
        "meta_mean_motion": 15.51656275,
        "meta_eccentricity": 0.00016056,
        "meta_inclination": 43.0003,
        "meta_ra_of_asc_node": 143.5509,
        "meta_arg_of_pericenter": 261.0282,
        "meta_mean_anomaly": 74.87,
        "meta_ephemeris_type": 0,
        "meta_classification_type": "U",
        "meta_norad_cat_id": 66559,
        "meta_element_set_no": 999,
        "meta_rev_at_epoch": 405,
        "meta_bstar": -0.027841774,
        "meta_mean_motion_dot": -0.01534429,
        "meta_mean_motion_ddot": 0,
        "tle_line1": "1 66559U 25268C   25342.91670139 -.01534429  00000+0 -27842-1 0  9999",
        "tle_line2": "2 66559  43.0003 143.5509 0001605 261.0282  74.8700 15.51656275  4051"
      },
      "geometry": {
        "type": "Point",
        "coordinates": [
          -151.1650833876261,
          40.75616060600965
        ]
      }
    },
    {
      "type": "Feature",
      "properties": {
        "norad_id": 66560,
        "name": "STARLINK-35411",
        "group": "last-30-days",
        "lat": 41.22775166846129,
        "lon": -148.70423188230367,
        "alt_km": 410.37838480243863,
        "timestamp": "2025-12-09T07:41:31.972833+00:00",
        "meta_object_name": "STARLINK-35411",
        "meta_object_id": "2025-268D",
        "meta_epoch": "2025-12-08T22:00:03.000096",
        "meta_mean_motion": 15.51655652,
        "meta_eccentricity": 0.00015976,
        "meta_inclination": 43.0003,
        "meta_ra_of_asc_node": 143.5462,
        "meta_arg_of_pericenter": 263.5237,
        "meta_mean_anomaly": 74.2915,
        "meta_ephemeris_type": 0,
        "meta_classification_type": "U",
        "meta_norad_cat_id": 66560,
        "meta_element_set_no": 999,
        "meta_rev_at_epoch": 405,
        "meta_bstar": -0.027819827,
        "meta_mean_motion_dot": -0.01533299,
        "meta_mean_motion_ddot": 0,
        "tle_line1": "1 66560U 25268D   25342.91670139 -.01533299  00000+0 -27820-1 0  9991",
        "tle_line2": "2 66560  43.0003 143.5462 0001597 263.5237  74.2915 15.51655652  4058"
      },
      "geometry": {
        "type": "Point",
        "coordinates": [
          -148.70423188230367,
          41.22775166846129
        ]
      }
    },
    {
      "type": "Feature",
      "properties": {
        "norad_id": 66561,
        "name": "STARLINK-35305",
        "group": "last-30-days",
        "lat": 42.00900605157833,
        "lon": -143.6892314869033,
        "alt_km": 410.2673872948326,
        "timestamp": "2025-12-09T07:41:31.972843+00:00",
        "meta_object_name": "STARLINK-35305",
        "meta_object_id": "2025-268E",
        "meta_epoch": "2025-12-08T22:00:03.000096",
        "meta_mean_motion": 15.51622449,
        "meta_eccentricity": 0.0001641,
        "meta_inclination": 43.0004,
        "meta_ra_of_asc_node": 143.5363,
        "meta_arg_of_pericenter": 263.5513,
        "meta_mean_anomaly": 78.1123,
        "meta_ephemeris_type": 0,
        "meta_classification_type": "U",
        "meta_norad_cat_id": 66561,
        "meta_element_set_no": 999,
        "meta_rev_at_epoch": 400,
        "meta_bstar": -0.026917937,
        "meta_mean_motion_dot": -0.01462793,
        "meta_mean_motion_ddot": 0,
        "tle_line1": "1 66561U 25268E   25342.91670139 -.01462793  00000+0 -26918-1 0  9999",
        "tle_line2": "2 66561  43.0004 143.5363 0001641 263.5513  78.1123 15.51622449  4004"
      },
      "geometry": {
        "type": "Point",
        "coordinates": [
          -143.6892314869033,
          42.00900605157833
        ]
      }
    }
  ]
}